[Satellite]
VERSION=1.1
NAME=NSS-7
NICKNAME=NSS-7
TLE1=1 27414U 02019A   17185.49920242 -.00000163  00000-0  00000-0 0  9995
TLE2=2 27414   1.9300  83.0022 0002480  22.1990 337.2066  1.00271763 55784
